[{"OBJECT_NAME":"STARLINK-11701 [DTC]","OBJECT_ID":"2025-089K","EPOCH":"2026-03-09T00:24:08.483040","MEAN_MOTION":15.71071026,"ECCENTRICITY":0.00014707,"INCLINATION":42.9998,"RA_OF_ASC_NODE":295.9414,"ARG_OF_PERICENTER":288.6181,"MEAN_ANOMALY":71.4527,"EPHEMERIS_TYPE":0,"CLASSIFICATION_TYPE":"U","NORAD_CAT_ID":63760,"ELEMENT_SET_NO":999,"REV_AT_EPOCH":5003,"BSTAR":0.0022051176,"MEAN_MOTION_DOT":0.00295652,"MEAN_MOTION_DDOT":0},{"OBJECT_NAME":"COSMOS 921 DEB","OBJECT_ID":"1977-055C","EPOCH":"2026-03-09T22:42:10.805760","MEAN_MOTION":15.70063735,"ECCENTRICITY":0.00183564,"INCLINATION":75.8082,"RA_OF_ASC_NODE":161.9867,"ARG_OF_PERICENTER":333.9317,"MEAN_ANOMALY":26.0991,"EPHEMERIS_TYPE":0,"CLASSIFICATION_TYPE":"U","NORAD_CAT_ID":39690,"ELEMENT_SET_NO":999,"REV_AT_EPOCH":65481,"BSTAR":0.0010474937,"MEAN_MOTION_DOT":0.0012919,"MEAN_MOTION_DDOT":0}]
